{"type": "FeatureCollection", "features": [ {"type": "Feature", "properties": {"norad_id": 40664, "name": "SKY MEXICO-1", "group": "intelsat", "lat": 0.019797154222832805, "lon": 3.042029220802231, "alt_km": 35784.22640470266, "timestamp": "2025-12-18T23:35:48.715241+00:00", "meta": {"OBJECT_NAME": "SKY MEXICO-1", "OBJECT_ID": "2015-026B", "EPOCH": "2025-12-18T12:15:35.616096", "MEAN_MOTION": 1.00272146, "ECCENTRICITY": 0.00022802, "INCLINATION": 0.0138, "RA_OF_ASC_NODE": 315.7301, "ARG_OF_PERICENTER": 328.1914, "MEAN_ANOMALY": 268.5854, "EPHEMERIS_TYPE": 0, "CLASSIFICATION_TYPE": "U", "NORAD_CAT_ID": 40664, "ELEMENT_SET_NO": 999, "REV_AT_EPOCH": 3864, "BSTAR": 0, "MEAN_MOTION_DOT": -2.09e-06, "MEAN_MOTION_DDOT": 0}, "tle": {"line1": "1 40664U 15026B   25352.51082889 -.00000209  00000+0  00000+0 0  9992", "line2": "2 40664   0.0138 315.7301 0002280 328.1914 268.5854  1.00272146 38646"}}, "geometry": {"type": "Point", "coordinates": [3.042029220802231, 0.019797154222832805]}}, {"type": "Feature", "properties": {"norad_id": 40874, "name": "INTELSAT 34 (IS-34)", "group": "intelsat", "lat": 0.028864313302679877, "lon": 26.262215802827306, "alt_km": 35787.662407969074, "timestamp": "2025-12-18T23:35:48.715253+00:00", "meta": {"OBJECT_NAME": "INTELSAT 34 (IS-34)", "OBJECT_ID": "2015-039A", "EPOCH": "2025-12-18T13:01:50.696832", "MEAN_MOTION": 1.00269877, "ECCENTRICITY": 6.115e-05, "INCLINATION": 0.0152, "RA_OF_ASC_NODE": 339.1301, "ARG_OF_PERICENTER": 160.2363, "MEAN_ANOMALY": 87.9911, "EPHEMERIS_TYPE": 0, "CLASSIFICATION_TYPE": "U", "NORAD_CAT_ID": 40874, "ELEMENT_SET_NO": 999, "REV_AT_EPOCH": 3781, "BSTAR": 0, "MEAN_MOTION_DOT": -2.6e-06, "MEAN_MOTION_DDOT": 0}, "tle": {"line1": "1 40874U 15039A   25352.54294788 -.00000260  00000+0  00000+0 0  9992", "line2": "2 40874   0.0152 339.1301 0000611 160.2363  87.9911  1.00269877 37816"}}, "geometry": {"type": "Point", "coordinates": [26.262215802827306, 0.028864313302679877]}}, {"type": "Feature", "properties": {"norad_id": 41581, "name": "INTELSAT 31 (IS-31)", "group": "intelsat", "lat": 0.01785219803991299, "lon": -13.257468613486799, "alt_km": 35793.12278111035, "timestamp": "2025-12-18T23:35:48.715264+00:00", "meta": {"OBJECT_NAME": "INTELSAT 31 (IS-31)", "OBJECT_ID": "2016-035A", "EPOCH": "2025-12-18T14:33:19.434816", "MEAN_MOTION": 1.00270872, "ECCENTRICITY": 0.00020076, "INCLINATION": 0.0235, "RA_OF_ASC_NODE": 272.5701, "ARG_OF_PERICENTER": 290.5326, "MEAN_ANOMALY": 7.6454, "EPHEMERIS_TYPE": 0, "CLASSIFICATION_TYPE": "U", "NORAD_CAT_ID": 41581, "ELEMENT_SET_NO": 999, "REV_AT_EPOCH": 3487, "BSTAR": 0, "MEAN_MOTION_DOT": -1.26e-06, "MEAN_MOTION_DDOT": 0}, "tle": {"line1": "1 41581U 16035A   25352.60647494 -.00000126  00000+0  00000+0 0  9999", "line2": "2 41581   0.0235 272.5701 0002007 290.5326   7.6454  1.00270872 34876"}}, "geometry": {"type": "Point", "coordinates": [-13.257468613486799, 0.01785219803991299]}}, {"type": "Feature", "properties": {"norad_id": 41747, "name": "INTELSAT 36 (IS-36)", "group": "intelsat", "lat": 0.020998500167818426, "lon": 150.2609484029884, "alt_km": 35791.518889654886, "timestamp": "2025-12-18T23:35:48.715276+00:00", "meta": {"OBJECT_NAME": "INTELSAT 36 (IS-36)", "OBJECT_ID": "2016-053A", "EPOCH": "2025-12-18T12:16:18.352128", "MEAN_MOTION": 1.00271295, "ECCENTRICITY": 0.00012688, "INCLINATION": 0.0133, "RA_OF_ASC_NODE": 13.8529, "ARG_OF_PERICENTER": 319.7519, "MEAN_ANOMALY": 6.3257, "EPHEMERIS_TYPE": 0, "CLASSIFICATION_TYPE": "U", "NORAD_CAT_ID": 41747, "ELEMENT_SET_NO": 999, "REV_AT_EPOCH": 3413, "BSTAR": 0, "MEAN_MOTION_DOT": 1e-08, "MEAN_MOTION_DDOT": 0}, "tle": {"line1": "1 41747U 16053A   25352.51132352  .00000001  00000+0  00000+0 0  9996", "line2": "2 41747   0.0133  13.8529 0001268 319.7519   6.3257  1.00271295 34133"}}, "geometry": {"type": "Point", "coordinates": [150.2609484029884, 0.020998500167818426]}}, {"type": "Feature", "properties": {"norad_id": 41945, "name": "INTELSAT 32E (IS-32E)", "group": "intelsat", "lat": 0.0014178969205528513, "lon": 38.601262797197414, "alt_km": 35783.78349449035, "timestamp": "2025-12-18T23:35:48.715288+00:00", "meta": {"OBJECT_NAME": "INTELSAT 32E (IS-32E)", "OBJECT_ID": "2017-007B", "EPOCH": "2025-12-18T11:22:37.699680", "MEAN_MOTION": 1.00270135, "ECCENTRICITY": 6.748e-05, "INCLINATION": 0.0305, "RA_OF_ASC_NODE": 71.9297, "ARG_OF_PERICENTER": 319.1225, "MEAN_ANOMALY": 183.7647, "EPHEMERIS_TYPE": 0, "CLASSIFICATION_TYPE": "U", "NORAD_CAT_ID": 41945, "ELEMENT_SET_NO": 999, "REV_AT_EPOCH": 3241, "BSTAR": 0, "MEAN_MOTION_DOT": -2.44e-06, "MEAN_MOTION_DDOT": 0}, "tle": {"line1": "1 41945U 17007B   25352.47404745 -.00000244  00000+0  00000+0 0  9999", "line2": "2 41945   0.0305  71.9297 0000674 319.1225 183.7647  1.00270135 32413"}}, "geometry": {"type": "Point", "coordinates": [38.601262797197414, 0.0014178969205528513]}}, {"type": "Feature", "properties": {"norad_id": 42818, "name": "INTELSAT 35E (IS-35E)", "group": "intelsat", "lat": 0.0333457367364583, "lon": 47.29515625631855, "alt_km": 35792.30469972263, "timestamp": "2025-12-18T23:35:48.715299+00:00", "meta": {"OBJECT_NAME": "INTELSAT 35E (IS-35E)", "OBJECT_ID": "2017-041A", "EPOCH": "2025-12-18T11:25:07.461120", "MEAN_MOTION": 1.00269757, "ECCENTRICITY": 0.00018445, "INCLINATION": 0.0267, "RA_OF_ASC_NODE": 16.5281, "ARG_OF_PERICENTER": 254.92, "MEAN_ANOMALY": 312.6753, "EPHEMERIS_TYPE": 0, "CLASSIFICATION_TYPE": "U", "NORAD_CAT_ID": 42818, "ELEMENT_SET_NO": 999, "REV_AT_EPOCH": 3100, "BSTAR": 0, "MEAN_MOTION_DOT": 0, "MEAN_MOTION_DDOT": 0}, "tle": {"line1": "1 42818U 17041A   25352.47578080  .00000000  00000+0  00000+0 0  9990", "line2": "2 42818   0.0267  16.5281 0001844 254.9200 312.6753  1.00269757 31000"}}, "geometry": {"type": "Point", "coordinates": [47.29515625631855, 0.0333457367364583]}}, {"type": "Feature", "properties": {"norad_id": 42950, "name": "INTELSAT 37E (IS-37E)", "group": "intelsat", "lat": 0.0469128416447895, "lon": 63.771195218633856, "alt_km": 35798.88398925184, "timestamp": "2025-12-18T23:35:48.715311+00:00", "meta": {"OBJECT_NAME": "INTELSAT 37E (IS-37E)", "OBJECT_ID": "2017-059A", "EPOCH": "2025-12-18T09:47:08.087136", "MEAN_MOTION": 1.00269601, "ECCENTRICITY": 0.00029612, "INCLINATION": 0.0263, "RA_OF_ASC_NODE": 7.0136, "ARG_OF_PERICENTER": 250.7085, "MEAN_ANOMALY": 318.3201, "EPHEMERIS_TYPE": 0, "CLASSIFICATION_TYPE": "U", "NORAD_CAT_ID": 42950, "ELEMENT_SET_NO": 999, "REV_AT_EPOCH": 3025, "BSTAR": 0, "MEAN_MOTION_DOT": 0, "MEAN_MOTION_DDOT": 0}, "tle": {"line1": "1 42950U 17059A   25352.40773249  .00000000  00000+0  00000+0 0  9993", "line2": "2 42950   0.0263   7.0136 0002961 250.7085 318.3201  1.00269601 30258"}}, "geometry": {"type": "Point", "coordinates": [63.771195218633856, 0.0469128416447895]}}, {"type": "Feature", "properties": {"norad_id": 43632, "name": "AZERSPACE 2 (IS-38)", "group": "intelsat", "lat": 0.034286668849135886, "lon": 126.88471371759424, "alt_km": 35790.10906322524, "timestamp": "2025-12-18T23:35:48.715323+00:00", "meta": {"OBJECT_NAME": "AZERSPACE 2 (IS-38)", "OBJECT_ID": "2018-074A", "EPOCH": "2025-12-18T11:47:50.284608", "MEAN_MOTION": 1.00271975, "ECCENTRICITY": 0.00011657, "INCLINATION": 0.0182, "RA_OF_ASC_NODE": 1.1401, "ARG_OF_PERICENTER": 272.9163, "MEAN_ANOMALY": 35.3682, "EPHEMERIS_TYPE": 0, "CLASSIFICATION_TYPE": "U", "NORAD_CAT_ID": 43632, "ELEMENT_SET_NO": 999, "REV_AT_EPOCH": 2663, "BSTAR": 0, "MEAN_MOTION_DOT": 1.61e-06, "MEAN_MOTION_DDOT": 0}, "tle": {"line1": "1 43632U 18074A   25352.49155422  .00000161  00000+0  00000+0 0  9993", "line2": "2 43632   0.0182   1.1401 0001165 272.9163  35.3682  1.00271975 26637"}}, "geometry": {"type": "Point", "coordinates": [126.88471371759424, 0.034286668849135886]}}, {"type": "Feature", "properties": {"norad_id": 43633, "name": "HORIZONS-3E", "group": "intelsat", "lat": -0.01539159140362529, "lon": -109.25316247375848, "alt_km": 35785.10169306386, "timestamp": "2025-12-18T23:35:48.715335+00:00", "meta": {"OBJECT_NAME": "HORIZONS-3E", "OBJECT_ID": "2018-074B", "EPOCH": "2025-12-18T10:40:25.482432", "MEAN_MOTION": 1.00268833, "ECCENTRICITY": 8.318e-05, "INCLINATION": 0.0515, "RA_OF_ASC_NODE": 182.9983, "ARG_OF_PERICENTER": 127.2074, "MEAN_ANOMALY": 106.1886, "EPHEMERIS_TYPE": 0, "CLASSIFICATION_TYPE": "U", "NORAD_CAT_ID": 43633, "ELEMENT_SET_NO": 999, "REV_AT_EPOCH": 2652, "BSTAR": 0, "MEAN_MOTION_DOT": -6e-08, "MEAN_MOTION_DDOT": 0}, "tle": {"line1": "1 43633U 18074B   25352.44473938 -.00000006  00000+0  00000+0 0  9993", "line2": "2 43633   0.0515 182.9983 0000831 127.2074 106.1886  1.00268833 26523"}}, "geometry": {"type": "Point", "coordinates": [-109.25316247375848, -0.01539159140362529]}}, {"type": "Feature", "properties": {"norad_id": 44333, "name": "AT&T T-16", "group": "intelsat", "lat": -0.02675839717000527, "lon": -19.100635812720192, "alt_km": 35789.56414493843, "timestamp": "2025-12-18T23:35:48.715346+00:00", "meta": {"OBJECT_NAME": "AT&T T-16", "OBJECT_ID": "2019-034A", "EPOCH": "2025-12-17T23:07:09.285888", "MEAN_MOTION": 1.00269567, "ECCENTRICITY": 7.786e-05, "INCLINATION": 0.0259, "RA_OF_ASC_NODE": 66.0792, "ARG_OF_PERICENTER": 65.0854, "MEAN_ANOMALY": 201.5889, "EPHEMERIS_TYPE": 0, "CLASSIFICATION_TYPE": "U", "NORAD_CAT_ID": 44333, "ELEMENT_SET_NO": 999, "REV_AT_EPOCH": 2381, "BSTAR": 0, "MEAN_MOTION_DOT": -9e-07, "MEAN_MOTION_DDOT": 0}, "tle": {"line1": "1 44333U 19034A   25351.96330192 -.00000090  00000+0  00000+0 0  9991", "line2": "2 44333   0.0259  66.0792 0000778  65.0854 201.5889  1.00269567 23818"}}, "geometry": {"type": "Point", "coordinates": [-19.100635812720192, -0.02675839717000527]}}]}